GLOBALSTAR M094         
1 39074U 13005C   25223.68482623 -.00000113  00000+0 -50242-4 0  9998
2 39074  51.9977  13.1428 0000968  79.7361 280.3615 12.62263095579381
GLOBALSTAR M096         
1 39075U 13005D   25223.85626861 -.00000101  00000+0  15816-4 0  9996
2 39075  52.0077  61.1783 0000955  61.8933 298.2030 12.62266180578325
GLOBALSTAR M078         
1 39076U 13005E   25223.90922568 -.00000001  00000+0  57407-3 0  9996
2 39076  51.9865 145.4527 0000785 336.4908  23.5923 12.62260667576956
GLOBALSTAR M095         
1 39077U 13005F   25223.93516907 -.00000088  00000+0  89806-4 0  9990
2 39077  51.9793 142.5397 0000815  15.9025 344.1867 12.62268449576813
GLOBALSTAR M087         
1 52888U 22064A   25223.87105818 -.00000086  00000+0  10074-3 0  9996
2 52888  51.9996 284.1645 0000337  93.3622 266.7284 12.62300845152071
